[{"OBJECT_NAME":"HIBARI","OBJECT_ID":"2021-102F","EPOCH":"2026-03-09T16:55:51.090816","MEAN_MOTION":15.29554512,"ECCENTRICITY":0.00120742,"INCLINATION":97.3381,"RA_OF_ASC_NODE":115.826,"ARG_OF_PERICENTER":186.5211,"MEAN_ANOMALY":173.5875,"EPHEMERIS_TYPE":0,"CLASSIFICATION_TYPE":"U","NORAD_CAT_ID":49400,"ELEMENT_SET_NO":999,"REV_AT_EPOCH":23897,"BSTAR":0.00042758039,"MEAN_MOTION_DOT":0.00012206,"MEAN_MOTION_DDOT":0},{"OBJECT_NAME":"STARLINK-31537","OBJECT_ID":"2024-060T","EPOCH":"2026-03-09T12:30:01.548864","MEAN_MOTION":15.27578053,"ECCENTRICITY":0.00021641,"INCLINATION":43.0046,"RA_OF_ASC_NODE":261.1004,"ARG_OF_PERICENTER":292.9047,"MEAN_ANOMALY":67.1576,"EPHEMERIS_TYPE":0,"CLASSIFICATION_TYPE":"U","NORAD_CAT_ID":59365,"ELEMENT_SET_NO":999,"REV_AT_EPOCH":11003,"BSTAR":-0.00029747854,"MEAN_MOTION_DOT":-8.439e-5,"MEAN_MOTION_DDOT":0}]
